CENTISPACE-1 OBJECT D   
1 68353U 26060D   26087.05775003  .00000040  00000+0  36681-4 0  9990
2 68353  54.9867   6.6935 0012484 311.4708  48.5219 14.75149317   807
